CCSDS_OMM_VERS = 2.0
CREATION_DATE  = 
ORIGINATOR     = 

OBJECT_NAME    = STARLINK-36828
OBJECT_ID      = 2026-034H
CENTER_NAME    = EARTH
REF_FRAME      = TEME
TIME_SYSTEM    = UTC
MEAN_ELEMENT_THEORY = SGP/SGP4

EPOCH          = 2026-03-17T10:33:27.796320
MEAN_MOTION    = 15.80919472
ECCENTRICITY   = .00016257
INCLINATION    = 53.1586
RA_OF_ASC_NODE = 172.4625
ARG_OF_PERICENTER = 19.0781
MEAN_ANOMALY   = 341.0303

EPHEMERIS_TYPE = 0
CLASSIFICATION_TYPE = U
NORAD_CAT_ID   = 67857
ELEMENT_SET_NO = 999
REV_AT_EPOCH   = 516
BSTAR          = .76380763E-3
MEAN_MOTION_DOT = .153082E-2
MEAN_MOTION_DDOT = 0

CCSDS_OMM_VERS = 2.0
CREATION_DATE  = 
ORIGINATOR     = 

OBJECT_NAME    = STARLINK-36837
OBJECT_ID      = 2026-034J
CENTER_NAME    = EARTH
REF_FRAME      = TEME
TIME_SYSTEM    = UTC
MEAN_ELEMENT_THEORY = SGP/SGP4

EPOCH          = 2026-03-17T15:04:24.593088
MEAN_MOTION    = 15.80931006
ECCENTRICITY   = .00008905
INCLINATION    = 53.1584
RA_OF_ASC_NODE = 171.5026
ARG_OF_PERICENTER = 123.1318
MEAN_ANOMALY   = 236.9790

EPHEMERIS_TYPE = 0
CLASSIFICATION_TYPE = U
NORAD_CAT_ID   = 67858
ELEMENT_SET_NO = 999
REV_AT_EPOCH   = 519
BSTAR          = .96230222E-3
MEAN_MOTION_DOT = .194075E-2
MEAN_MOTION_DDOT = 0

CCSDS_OMM_VERS = 2.0
CREATION_DATE  = 
ORIGINATOR     = 

OBJECT_NAME    = STARLINK-36393
OBJECT_ID      = 2026-034K
CENTER_NAME    = EARTH
REF_FRAME      = TEME
TIME_SYSTEM    = UTC
MEAN_ELEMENT_THEORY = SGP/SGP4

EPOCH          = 2026-03-17T10:30:13.233024
MEAN_MOTION    = 15.80963528
ECCENTRICITY   = .00017515
INCLINATION    = 53.1579
RA_OF_ASC_NODE = 172.4472
ARG_OF_PERICENTER = 8.4151
MEAN_ANOMALY   = 351.6901

EPHEMERIS_TYPE = 0
CLASSIFICATION_TYPE = U
NORAD_CAT_ID   = 67859
ELEMENT_SET_NO = 999
REV_AT_EPOCH   = 516
BSTAR          = .14217045E-2
MEAN_MOTION_DOT = .290763E-2
MEAN_MOTION_DDOT = 0

CCSDS_OMM_VERS = 2.0
CREATION_DATE  = 
ORIGINATOR     = 

OBJECT_NAME    = STARLINK-35873
OBJECT_ID      = 2026-034L
CENTER_NAME    = EARTH
REF_FRAME      = TEME
TIME_SYSTEM    = UTC
MEAN_ELEMENT_THEORY = SGP/SGP4

EPOCH          = 2026-03-17T10:29:08.381184
MEAN_MOTION    = 15.81045705
ECCENTRICITY   = .00015639
INCLINATION    = 53.1585
RA_OF_ASC_NODE = 172.4417
ARG_OF_PERICENTER = 163.4050
MEAN_ANOMALY   = 196.7024

EPHEMERIS_TYPE = 0
CLASSIFICATION_TYPE = U
NORAD_CAT_ID   = 67860
ELEMENT_SET_NO = 999
REV_AT_EPOCH   = 519
BSTAR          = .2195435E-2
MEAN_MOTION_DOT = .460151E-2
MEAN_MOTION_DDOT = 0

CCSDS_OMM_VERS = 2.0
CREATION_DATE  = 
ORIGINATOR     = 

OBJECT_NAME    = STARLINK-36325
OBJECT_ID      = 2026-034M
CENTER_NAME    = EARTH
REF_FRAME      = TEME
TIME_SYSTEM    = UTC
MEAN_ELEMENT_THEORY = SGP/SGP4

EPOCH          = 2026-03-17T10:28:03.711648
MEAN_MOTION    = 15.81027034
ECCENTRICITY   = .00009322
INCLINATION    = 53.1585
RA_OF_ASC_NODE = 172.4374
ARG_OF_PERICENTER = 152.6794
MEAN_ANOMALY   = 207.4278

EPHEMERIS_TYPE = 0
CLASSIFICATION_TYPE = U
NORAD_CAT_ID   = 67861
ELEMENT_SET_NO = 999
REV_AT_EPOCH   = 516
BSTAR          = .21084233E-2
MEAN_MOTION_DOT = .440509E-2
MEAN_MOTION_DDOT = 0

CCSDS_OMM_VERS = 2.0
CREATION_DATE  = 
ORIGINATOR     = 

OBJECT_NAME    = STARLINK-36332
OBJECT_ID      = 2026-034N
CENTER_NAME    = EARTH
REF_FRAME      = TEME
TIME_SYSTEM    = UTC
MEAN_ELEMENT_THEORY = SGP/SGP4

EPOCH          = 2026-03-17T10:26:58.875360
MEAN_MOTION    = 15.81032137
ECCENTRICITY   = .0000585
INCLINATION    = 53.1585
RA_OF_ASC_NODE = 172.4318
ARG_OF_PERICENTER = 115.4206
MEAN_ANOMALY   = 244.6877

EPHEMERIS_TYPE = 0
CLASSIFICATION_TYPE = U
NORAD_CAT_ID   = 67862
ELEMENT_SET_NO = 999
REV_AT_EPOCH   = 516
BSTAR          = .20591178E-2
MEAN_MOTION_DOT = .429764E-2
MEAN_MOTION_DDOT = 0

CCSDS_OMM_VERS = 2.0
CREATION_DATE  = 
ORIGINATOR     = 

OBJECT_NAME    = STARLINK-36835
OBJECT_ID      = 2026-034P
CENTER_NAME    = EARTH
REF_FRAME      = TEME
TIME_SYSTEM    = UTC
MEAN_ELEMENT_THEORY = SGP/SGP4

EPOCH          = 2026-03-17T10:25:53.942304
MEAN_MOTION    = 15.81052628
ECCENTRICITY   = .00007436
INCLINATION    = 53.1592
RA_OF_ASC_NODE = 172.4264
ARG_OF_PERICENTER = 104.2177
MEAN_ANOMALY   = 255.8929

EPHEMERIS_TYPE = 0
CLASSIFICATION_TYPE = U
NORAD_CAT_ID   = 67863
ELEMENT_SET_NO = 999
REV_AT_EPOCH   = 516
BSTAR          = .22225154E-2
MEAN_MOTION_DOT = .466361E-2
MEAN_MOTION_DDOT = 0

CCSDS_OMM_VERS = 2.0
CREATION_DATE  = 
ORIGINATOR     = 

OBJECT_NAME    = STARLINK-36831
OBJECT_ID      = 2026-034Q
CENTER_NAME    = EARTH
REF_FRAME      = TEME
TIME_SYSTEM    = UTC
MEAN_ELEMENT_THEORY = SGP/SGP4

EPOCH          = 2026-03-17T10:24:49.195872
MEAN_MOTION    = 15.80965192
ECCENTRICITY   = .00022841
INCLINATION    = 53.1583
RA_OF_ASC_NODE = 172.4219
ARG_OF_PERICENTER = 11.7343
MEAN_ANOMALY   = 348.3733

EPHEMERIS_TYPE = 0
CLASSIFICATION_TYPE = U
NORAD_CAT_ID   = 67864
ELEMENT_SET_NO = 999
REV_AT_EPOCH   = 516
BSTAR          = .1420237E-2
MEAN_MOTION_DOT = .29048E-2
MEAN_MOTION_DDOT = 0

CCSDS_OMM_VERS = 2.0
CREATION_DATE  = 
ORIGINATOR     = 

OBJECT_NAME    = STARLINK-36738
OBJECT_ID      = 2026-034R
CENTER_NAME    = EARTH
REF_FRAME      = TEME
TIME_SYSTEM    = UTC
MEAN_ELEMENT_THEORY = SGP/SGP4

EPOCH          = 2026-03-17T10:23:44.497824
MEAN_MOTION    = 15.80976356
ECCENTRICITY   = .00004231
INCLINATION    = 53.1586
RA_OF_ASC_NODE = 172.4167
ARG_OF_PERICENTER = 93.9038
MEAN_ANOMALY   = 266.2033

EPHEMERIS_TYPE = 0
CLASSIFICATION_TYPE = U
NORAD_CAT_ID   = 67865
ELEMENT_SET_NO = 999
REV_AT_EPOCH   = 516
BSTAR          = .13607347E-2
MEAN_MOTION_DOT = .278025E-2
MEAN_MOTION_DDOT = 0

CCSDS_OMM_VERS = 2.0
CREATION_DATE  = 
ORIGINATOR     = 

OBJECT_NAME    = STARLINK-36780
OBJECT_ID      = 2026-034S
CENTER_NAME    = EARTH
REF_FRAME      = TEME
TIME_SYSTEM    = UTC
MEAN_ELEMENT_THEORY = SGP/SGP4

EPOCH          = 2026-03-17T10:22:39.601056
MEAN_MOTION    = 15.81045771
ECCENTRICITY   = .00007117
INCLINATION    = 53.1584
RA_OF_ASC_NODE = 172.4106
ARG_OF_PERICENTER = 163.5463
MEAN_ANOMALY   = 196.5583

EPHEMERIS_TYPE = 0
CLASSIFICATION_TYPE = U
NORAD_CAT_ID   = 67866
ELEMENT_SET_NO = 999
REV_AT_EPOCH   = 516
BSTAR          = .22089352E-2
MEAN_MOTION_DOT = .46319E-2
MEAN_MOTION_DDOT = 0

CCSDS_OMM_VERS = 2.0
CREATION_DATE  = 
ORIGINATOR     = 

OBJECT_NAME    = STARLINK-36761
OBJECT_ID      = 2026-034T
CENTER_NAME    = EARTH
REF_FRAME      = TEME
TIME_SYSTEM    = UTC
MEAN_ELEMENT_THEORY = SGP/SGP4

EPOCH          = 2026-03-17T13:23:39.179904
MEAN_MOTION    = 15.80908302
ECCENTRICITY   = .00009982
INCLINATION    = 53.1593
RA_OF_ASC_NODE = 171.7715
ARG_OF_PERICENTER = 43.2460
MEAN_ANOMALY   = 316.8641

EPHEMERIS_TYPE = 0
CLASSIFICATION_TYPE = U
NORAD_CAT_ID   = 67867
ELEMENT_SET_NO = 999
REV_AT_EPOCH   = 518
BSTAR          = .1501529E-2
MEAN_MOTION_DOT = .306933E-2
MEAN_MOTION_DDOT = 0

CCSDS_OMM_VERS = 2.0
CREATION_DATE  = 
ORIGINATOR     = 

OBJECT_NAME    = STARLINK-36762
OBJECT_ID      = 2026-034U
CENTER_NAME    = EARTH
REF_FRAME      = TEME
TIME_SYSTEM    = UTC
MEAN_ELEMENT_THEORY = SGP/SGP4

EPOCH          = 2026-03-17T13:22:34.487904
MEAN_MOTION    = 15.80886292
ECCENTRICITY   = .00012085
INCLINATION    = 53.1592
RA_OF_ASC_NODE = 171.7670
ARG_OF_PERICENTER = 60.0605
MEAN_ANOMALY   = 300.0537

EPHEMERIS_TYPE = 0
CLASSIFICATION_TYPE = U
NORAD_CAT_ID   = 67868
ELEMENT_SET_NO = 999
REV_AT_EPOCH   = 518
BSTAR          = .11340789E-2
MEAN_MOTION_DOT = .229315E-2
MEAN_MOTION_DDOT = 0

