STARLINK-36828          
1 67857U 26034H   26076.43990505  .00153082  00000+0  76381-3 0  9990
2 67857  53.1586 172.4625 0001625  19.0781 341.0303 15.80919472  5162
STARLINK-36837          
1 67858U 26034J   26076.62806242  .00194075  00000+0  96230-3 0  9998
2 67858  53.1584 171.5026 0000890 123.1318 236.9790 15.80931006  5194
STARLINK-36393          
1 67859U 26034K   26076.43765316  .00290763  00000+0  14217-2 0  9999
2 67859  53.1579 172.4472 0001751   8.4151 351.6901 15.80963528  5161
STARLINK-35873          
1 67860U 26034L   26076.43690256  .00460151  00000+0  21954-2 0  9997
2 67860  53.1585 172.4417 0001563 163.4050 196.7024 15.81045705  5196
STARLINK-36325          
1 67861U 26034M   26076.43615407  .00440509  00000+0  21084-2 0  9992
2 67861  53.1585 172.4374 0000932 152.6794 207.4278 15.81027034  5166
STARLINK-36332          
1 67862U 26034N   26076.43540365  .00429764  00000+0  20591-2 0  9995
2 67862  53.1585 172.4318 0000585 115.4206 244.6877 15.81032137  5162
STARLINK-36835          
1 67863U 26034P   26076.43465211  .00466361  00000+0  22225-2 0  9992
2 67863  53.1592 172.4264 0000743 104.2177 255.8929 15.81052628  5169
STARLINK-36831          
1 67864U 26034Q   26076.43390273  .00290480  00000+0  14202-2 0  9991
2 67864  53.1583 172.4219 0002284  11.7343 348.3733 15.80965192  5168
STARLINK-36738          
1 67865U 26034R   26076.43315391  .00278025  00000+0  13607-2 0  9999
2 67865  53.1586 172.4167 0000423  93.9038 266.2033 15.80976356  5165
STARLINK-36780          
1 67866U 26034S   26076.43240279  .00463190  00000+0  22089-2 0  9995
2 67866  53.1584 172.4106 0000711 163.5463 196.5583 15.81045771  5167
STARLINK-36761          
1 67867U 26034T   26076.55809236  .00306933  00000+0  15015-2 0  9995
2 67867  53.1593 171.7715 0000998  43.2460 316.8641 15.80908302  5185
STARLINK-36762          
1 67868U 26034U   26076.55734361  .00229315  00000+0  11341-2 0  9998
2 67868  53.1592 171.7670 0001208  60.0605 300.0537 15.80886292  5180
